{"type": "FeatureCollection", "features": [ {"type": "Feature", "properties": {"norad_id": 33153, "name": "INTELSAT 25 (IS-25)", "group": "intelsat", "lat": 1.8058593244671657, "lon": 136.49465689249905, "alt_km": 35798.20776959458, "timestamp": "2025-12-12T05:47:28.439665+00:00", "meta": {"OBJECT_NAME": "INTELSAT 25 (IS-25)", "OBJECT_ID": "2008-034A", "EPOCH": "2025-12-11T21:55:19.234848", "MEAN_MOTION": 1.00271635, "ECCENTRICITY": 0.00050774, "INCLINATION": 2.2259, "RA_OF_ASC_NODE": 82.6571, "ARG_OF_PERICENTER": 178.7851, "MEAN_ANOMALY": 116.7626, "EPHEMERIS_TYPE": 0, "CLASSIFICATION_TYPE": "U", "NORAD_CAT_ID": 33153, "ELEMENT_SET_NO": 999, "REV_AT_EPOCH": 6381, "BSTAR": 0, "MEAN_MOTION_DOT": -2.15e-06, "MEAN_MOTION_DDOT": 0}, "tle": {"line1": "1 33153U 08034A   25345.91341707 -.00000215  00000+0  00000+0 0  9998", "line2": "2 33153   2.2259  82.6571 0005077 178.7851 116.7626  1.00271635 63814"}}, "geometry": {"type": "Point", "coordinates": [136.49465689249905, 1.8058593244671657]}}, {"type": "Feature", "properties": {"norad_id": 33376, "name": "GALAXY 19 (G-19)", "group": "intelsat", "lat": 0.03534448422202215, "lon": 71.05893153539674, "alt_km": 35797.68343327064, "timestamp": "2025-12-12T05:47:28.439677+00:00", "meta": {"OBJECT_NAME": "GALAXY 19 (G-19)", "OBJECT_ID": "2008-045A", "EPOCH": "2025-12-11T23:19:20.723232", "MEAN_MOTION": 1.00269692, "ECCENTRICITY": 0.00026538, "INCLINATION": 0.0174, "RA_OF_ASC_NODE": 349.6569, "ARG_OF_PERICENTER": 272.8388, "MEAN_ANOMALY": 71.2668, "EPHEMERIS_TYPE": 0, "CLASSIFICATION_TYPE": "U", "NORAD_CAT_ID": 33376, "ELEMENT_SET_NO": 999, "REV_AT_EPOCH": 6302, "BSTAR": 0, "MEAN_MOTION_DOT": 0, "MEAN_MOTION_DDOT": 0}, "tle": {"line1": "1 33376U 08045A   25345.97176763  .00000000  00000+0  00000+0 0  9992", "line2": "2 33376   0.0174 349.6569 0002653 272.8388  71.2668  1.00269692 63028"}}, "geometry": {"type": "Point", "coordinates": [71.05893153539674, 0.03534448422202215]}}, {"type": "Feature", "properties": {"norad_id": 35493, "name": "FM-5", "group": "intelsat", "lat": 0.02147469398273728, "lon": 81.9019737898134, "alt_km": 35785.95927527943, "timestamp": "2025-12-12T05:47:28.439689+00:00", "meta": {"OBJECT_NAME": "FM-5", "OBJECT_ID": "2009-034A", "EPOCH": "2025-12-11T23:22:27.924384", "MEAN_MOTION": 1.00271483, "ECCENTRICITY": 6.711e-05, "INCLINATION": 0.0165, "RA_OF_ASC_NODE": 292.0867, "ARG_OF_PERICENTER": 235.2397, "MEAN_ANOMALY": 178.0732, "EPHEMERIS_TYPE": 0, "CLASSIFICATION_TYPE": "U", "NORAD_CAT_ID": 35493, "ELEMENT_SET_NO": 999, "REV_AT_EPOCH": 4476, "BSTAR": 0, "MEAN_MOTION_DOT": -1.91e-06, "MEAN_MOTION_DDOT": 0}, "tle": {"line1": "1 35493U 09034A   25345.97393431 -.00000191  00000+0  00000+0 0  9998", "line2": "2 35493   0.0165 292.0867 0000671 235.2397 178.0732  1.00271483 44762"}}, "geometry": {"type": "Point", "coordinates": [81.9019737898134, 0.02147469398273728]}}, {"type": "Feature", "properties": {"norad_id": 36097, "name": "INTELSAT 14 (IS-14)", "group": "intelsat", "lat": 0.021401814404364873, "lon": 123.04697443845482, "alt_km": 35794.51619085522, "timestamp": "2025-12-12T05:47:28.439701+00:00", "meta": {"OBJECT_NAME": "INTELSAT 14 (IS-14)", "OBJECT_ID": "2009-064A", "EPOCH": "2025-12-11T11:35:03.635808", "MEAN_MOTION": 1.00274485, "ECCENTRICITY": 0.00026565, "INCLINATION": 0.0113, "RA_OF_ASC_NODE": 22.6919, "ARG_OF_PERICENTER": 244.5876, "MEAN_ANOMALY": 301.9324, "EPHEMERIS_TYPE": 0, "CLASSIFICATION_TYPE": "U", "NORAD_CAT_ID": 36097, "ELEMENT_SET_NO": 999, "REV_AT_EPOCH": 5872, "BSTAR": 0, "MEAN_MOTION_DOT": -2.66e-06, "MEAN_MOTION_DDOT": 0}, "tle": {"line1": "1 36097U 09064A   25345.48268097 -.00000266  00000+0  00000+0 0  9990", "line2": "2 36097   0.0113  22.6919 0002656 244.5876 301.9324  1.00274485 58721"}}, "geometry": {"type": "Point", "coordinates": [123.04697443845482, 0.021401814404364873]}}, {"type": "Feature", "properties": {"norad_id": 36106, "name": "INTELSAT 15 (IS-15)", "group": "intelsat", "lat": -0.027814421663138956, "lon": -106.801735702155, "alt_km": 35776.297371394736, "timestamp": "2025-12-12T05:47:28.439713+00:00", "meta": {"OBJECT_NAME": "INTELSAT 15 (IS-15)", "OBJECT_ID": "2009-067A", "EPOCH": "2025-12-11T22:28:38.543808", "MEAN_MOTION": 1.00272381, "ECCENTRICITY": 0.00023558, "INCLINATION": 0.0216, "RA_OF_ASC_NODE": 292.0325, "ARG_OF_PERICENTER": 335.9313, "MEAN_ANOMALY": 235.2378, "EPHEMERIS_TYPE": 0, "CLASSIFICATION_TYPE": "U", "NORAD_CAT_ID": 36106, "ELEMENT_SET_NO": 999, "REV_AT_EPOCH": 3935, "BSTAR": 0, "MEAN_MOTION_DOT": -1.77e-06, "MEAN_MOTION_DDOT": 0}, "tle": {"line1": "1 36106U 09067A   25345.93655722 -.00000177  00000+0  00000+0 0  9990", "line2": "2 36106   0.0216 292.0325 0002355 335.9313 235.2378  1.00272381 39356"}}, "geometry": {"type": "Point", "coordinates": [-106.801735702155, -0.027814421663138956]}}, {"type": "Feature", "properties": {"norad_id": 36131, "name": "DIRECTV 12", "group": "intelsat", "lat": -0.023508350492202717, "lon": 65.34068982350847, "alt_km": 35785.40443048652, "timestamp": "2025-12-12T05:47:28.439725+00:00", "meta": {"OBJECT_NAME": "DIRECTV 12", "OBJECT_ID": "2009-075A", "EPOCH": "2025-12-11T23:17:43.378944", "MEAN_MOTION": 1.00271584, "ECCENTRICITY": 4.678e-05, "INCLINATION": 0.0479, "RA_OF_ASC_NODE": 139.1887, "ARG_OF_PERICENTER": 218.3, "MEAN_ANOMALY": 330.148, "EPHEMERIS_TYPE": 0, "CLASSIFICATION_TYPE": "U", "NORAD_CAT_ID": 36131, "ELEMENT_SET_NO": 999, "REV_AT_EPOCH": 4467, "BSTAR": 0, "MEAN_MOTION_DOT": -9.5e-07, "MEAN_MOTION_DDOT": 0}, "tle": {"line1": "1 36131U 09075A   25345.97064096 -.00000095  00000+0  00000+0 0  9998", "line2": "2 36131   0.0479 139.1887 0000467 218.3000 330.1480  1.00271584 44672"}}, "geometry": {"type": "Point", "coordinates": [65.34068982350847, -0.023508350492202717]}}, {"type": "Feature", "properties": {"norad_id": 36397, "name": "INTELSAT 16 (IS-16)", "group": "intelsat", "lat": 0.023501431479099066, "lon": 91.85371222020116, "alt_km": 35794.796274717235, "timestamp": "2025-12-12T05:47:28.439737+00:00", "meta": {"OBJECT_NAME": "INTELSAT 16 (IS-16)", "OBJECT_ID": "2010-006A", "EPOCH": "2025-12-11T23:25:20.148960", "MEAN_MOTION": 1.00272283, "ECCENTRICITY": 0.00021168, "INCLINATION": 0.0093, "RA_OF_ASC_NODE": 327.4281, "ARG_OF_PERICENTER": 294.8168, "MEAN_ANOMALY": 93.8217, "EPHEMERIS_TYPE": 0, "CLASSIFICATION_TYPE": "U", "NORAD_CAT_ID": 36397, "ELEMENT_SET_NO": 999, "REV_AT_EPOCH": 5777, "BSTAR": 0, "MEAN_MOTION_DOT": -2.36e-06, "MEAN_MOTION_DDOT": 0}, "tle": {"line1": "1 36397U 10006A   25345.97592765 -.00000236  00000+0  00000+0 0  9994", "line2": "2 36397   0.0093 327.4281 0002116 294.8168  93.8217  1.00272283 57778"}}, "geometry": {"type": "Point", "coordinates": [91.85371222020116, 0.023501431479099066]}}, {"type": "Feature", "properties": {"norad_id": 37185, "name": "XM-5", "group": "intelsat", "lat": 0.052999174691962574, "lon": 52.837629362015925, "alt_km": 35787.2328455552, "timestamp": "2025-12-12T05:47:28.439748+00:00", "meta": {"OBJECT_NAME": "XM-5", "OBJECT_ID": "2010-053A", "EPOCH": "2025-12-11T23:14:06.224640", "MEAN_MOTION": 1.00271577, "ECCENTRICITY": 0.00016342, "INCLINATION": 0.0596, "RA_OF_ASC_NODE": 272.32, "ARG_OF_PERICENTER": 239.9053, "MEAN_ANOMALY": 162.0245, "EPHEMERIS_TYPE": 0, "CLASSIFICATION_TYPE": "U", "NORAD_CAT_ID": 37185, "ELEMENT_SET_NO": 999, "REV_AT_EPOCH": 5560, "BSTAR": 0, "MEAN_MOTION_DOT": -1.4e-07, "MEAN_MOTION_DDOT": 0}, "tle": {"line1": "1 37185U 10053A   25345.96812760 -.00000014  00000+0  00000+0 0  9995", "line2": "2 37185   0.0596 272.3200 0001634 239.9053 162.0245  1.00271577 55603"}}, "geometry": {"type": "Point", "coordinates": [52.837629362015925, 0.052999174691962574]}}, {"type": "Feature", "properties": {"norad_id": 37238, "name": "INTELSAT 17 (IS-17)", "group": "intelsat", "lat": -0.02432777841913676, "lon": -125.94903768453742, "alt_km": 35776.827568285116, "timestamp": "2025-12-12T05:47:28.439760+00:00", "meta": {"OBJECT_NAME": "INTELSAT 17 (IS-17)", "OBJECT_ID": "2010-065B", "EPOCH": "2025-12-11T23:16:10.396992", "MEAN_MOTION": 1.00271308, "ECCENTRICITY": 0.000251, "INCLINATION": 0.0095, "RA_OF_ASC_NODE": 302.1237, "ARG_OF_PERICENTER": 319.9634, "MEAN_ANOMALY": 233.8902, "EPHEMERIS_TYPE": 0, "CLASSIFICATION_TYPE": "U", "NORAD_CAT_ID": 37238, "ELEMENT_SET_NO": 999, "REV_AT_EPOCH": 5137, "BSTAR": 0, "MEAN_MOTION_DOT": 7e-08, "MEAN_MOTION_DDOT": 0}, "tle": {"line1": "1 37238U 10065B   25345.96956478  .00000007  00000+0  00000+0 0  9993", "line2": "2 37238   0.0095 302.1237 0002510 319.9634 233.8902  1.00271308 51375"}}, "geometry": {"type": "Point", "coordinates": [-125.94903768453742, -0.02432777841913676]}}, {"type": "Feature", "properties": {"norad_id": 37392, "name": "INTELSAT 28 (IS-28)", "group": "intelsat", "lat": 1.0397331309552869, "lon": 136.3247833194939, "alt_km": 35795.65619507072, "timestamp": "2025-12-12T05:47:28.439771+00:00", "meta": {"OBJECT_NAME": "INTELSAT 28 (IS-28)", "OBJECT_ID": "2011-016A", "EPOCH": "2025-12-11T21:55:19.234848", "MEAN_MOTION": 1.00273299, "ECCENTRICITY": 0.00038311, "INCLINATION": 1.3227, "RA_OF_ASC_NODE": 85.0544, "ARG_OF_PERICENTER": 179.8973, "MEAN_ANOMALY": 113.0556, "EPHEMERIS_TYPE": 0, "CLASSIFICATION_TYPE": "U", "NORAD_CAT_ID": 37392, "ELEMENT_SET_NO": 999, "REV_AT_EPOCH": 5140, "BSTAR": 0, "MEAN_MOTION_DOT": -2.16e-06, "MEAN_MOTION_DDOT": 0}, "tle": {"line1": "1 37392U 11016A   25345.91341707 -.00000216  00000+0  00000+0 0  9992", "line2": "2 37392   1.3227  85.0544 0003831 179.8973 113.0556  1.00273299 51400"}}, "geometry": {"type": "Point", "coordinates": [136.3247833194939, 1.0397331309552869]}}]}